{
  "CCSDS_CDM_VERS": "1.0",
  "CREATION_DATE": "2024-01-25T12:00:00.000Z",
  "ORIGINATOR": "JSpOC",
  "MESSAGE_ID": "CDM-2024-001-TEST",
  "TCA": "2024-01-26T08:30:45.123Z",
  "MISS_DISTANCE": 524.7,
  "MISS_DISTANCE_UNIT": "m",
  "RELATIVE_SPEED": 14520.3,
  "RELATIVE_SPEED_UNIT": "m/s",
  "RELATIVE_POSITION_R": 312.5,
  "RELATIVE_POSITION_T": 128.9,
  "RELATIVE_POSITION_N": 385.2,
  "RELATIVE_VELOCITY_R": 1.234,
  "RELATIVE_VELOCITY_T": 14518.9,
  "RELATIVE_VELOCITY_N": 87.3,
  "COLLISION_PROBABILITY": 1.23e-5,
  "COLLISION_PROBABILITY_METHOD": "FOSTER-1992",
  "OBJECT1": {
    "OBJECT": "OBJECT1",
    "OBJECT_DESIGNATOR": "25544",
    "CATALOG_NAME": "SATCAT",
    "OBJECT_NAME": "ISS (ZARYA)",
    "INTERNATIONAL_DESIGNATOR": "1998-067A",
    "OBJECT_TYPE": "PAYLOAD",
    "OPERATOR_CONTACT_POSITION": "Flight Director",
    "OPERATOR_ORGANIZATION": "NASA",
    "OPERATOR_PHONE": "+1-281-483-3000",
    "OPERATOR_EMAIL": "flight.director@nasa.gov",
    "EPHEMERIS_NAME": "JSC-OEM",
    "COVARIANCE_METHOD": "CALCULATED",
    "MANEUVERABLE": "YES",
    "REF_FRAME": "ITRF",
    "GRAVITY_MODEL": "EGM-96:70D70O",
    "ATMOSPHERIC_MODEL": "JBH09",
    "N_BODY_PERTURBATIONS": "MOON,SUN",
    "SOLAR_RAD_PRESSURE": "YES",
    "EARTH_TIDES": "YES",
    "INTRACK_THRUST": "NO",
    "TIME_LASTOB_START": "2024-01-25T06:00:00.000Z",
    "TIME_LASTOB_END": "2024-01-25T11:55:00.000Z",
    "RECOMMENDED_OD_SPAN": 7.5,
    "ACTUAL_OD_SPAN": 7.5,
    "OBS_AVAILABLE": 250,
    "OBS_USED": 245,
    "TRACKS_AVAILABLE": 15,
    "TRACKS_USED": 15,
    "RESIDUALS_ACCEPTED": 98.0,
    "WEIGHTED_RMS": 1.234,
    "AREA_PC": 419.5,
    "AREA_PC_UNIT": "m**2",
    "AREA_DRG": 419.5,
    "AREA_DRG_UNIT": "m**2",
    "AREA_SRP": 419.5,
    "AREA_SRP_UNIT": "m**2",
    "MASS": 420000.0,
    "MASS_UNIT": "kg",
    "CD_AREA_OVER_MASS": 0.001,
    "CD_AREA_OVER_MASS_UNIT": "m**2/kg",
    "CR_AREA_OVER_MASS": 0.001,
    "CR_AREA_OVER_MASS_UNIT": "m**2/kg",
    "THRUST_ACCELERATION": 0.0,
    "THRUST_ACCELERATION_UNIT": "m/s**2",
    "SEDR": 5.67e-6,
    "SEDR_UNIT": "W/kg",
    "X": 4067.342,
    "Y": -3012.456,
    "Z": 4578.901,
    "X_DOT": 2.345,
    "Y_DOT": 6.789,
    "Z_DOT": -1.234,
    "CR_R": 1.234e6,
    "CT_R": 2.345e5,
    "CT_T": 5.678e6,
    "CN_R": 1.234e4,
    "CN_T": 2.345e4,
    "CN_N": 3.456e6,
    "CRDOT_R": 1.234e1,
    "CRDOT_T": 2.345e1,
    "CRDOT_N": 3.456e1,
    "CRDOT_RDOT": 4.567e-2,
    "CTDOT_R": 1.234e1,
    "CTDOT_T": 2.345e1,
    "CTDOT_N": 3.456e1,
    "CTDOT_RDOT": 4.567e-2,
    "CTDOT_TDOT": 5.678e-2,
    "CNDOT_R": 1.234e1,
    "CNDOT_T": 2.345e1,
    "CNDOT_N": 3.456e1,
    "CNDOT_RDOT": 4.567e-2,
    "CNDOT_TDOT": 5.678e-2,
    "CNDOT_NDOT": 6.789e-2
  },
  "OBJECT2": {
    "OBJECT": "OBJECT2",
    "OBJECT_DESIGNATOR": "99999",
    "CATALOG_NAME": "SATCAT",
    "OBJECT_NAME": "DEBRIS",
    "INTERNATIONAL_DESIGNATOR": "2021-999A",
    "OBJECT_TYPE": "DEBRIS",
    "EPHEMERIS_NAME": "USSPACECOM-OEM",
    "COVARIANCE_METHOD": "CALCULATED",
    "MANEUVERABLE": "N/A",
    "REF_FRAME": "ITRF",
    "X": 4067.542,
    "Y": -3012.656,
    "Z": 4579.101,
    "X_DOT": 2.445,
    "Y_DOT": 6.889,
    "Z_DOT": -1.334,
    "CR_R": 2.234e6,
    "CT_R": 3.345e5,
    "CT_T": 6.678e6,
    "CN_R": 2.234e4,
    "CN_T": 3.345e4,
    "CN_N": 4.456e6
  }
}
